ALOS (DAICHI)           
1 28931U 06002A   26024.86340028  .00002345  00000+0  40237-3 0  9998
2 28931  98.1152 341.0651 0002178  80.7940 279.3512 14.69648973 67040
H-2A R/B                
1 28932U 06002B   26024.84734191  .00011656  00000+0  59660-3 0  9990
2 28932  98.2344 168.1554 0053949  31.6000 328.8451 15.15516351 87791
RESURS-DK 1             
1 29228U 06021A   26025.08808605  .00004480  00000+0  26306-3 0  9997
2 29228  69.9348 349.7849 0005128 216.8408 143.2406 15.12455331 80933
CZ-4B R/B               
1 29507U 06046C   26025.13099182  .00008464  00000+0  43241-3 0  9995
2 29507  97.5677  70.1528 0034925  59.8663 300.6024 15.16397987 53446
CZ-2C R/B               
1 31114U 07010B   26024.76483618  .00000250  00000+0  13379-3 0  9997
2 31114  98.3972 140.2508 0059976  62.5417 298.1842 14.20229826973482
COSMO-SKYMED 1          
1 31598U 07023A   26025.19873929  .00006767  00000+0  60587-3 0  9995
2 31598  97.8848 215.8956 0001324  89.6857 270.4515 14.96158280  8401
COSMOS 2428             
1 31792U 07029A   26025.13706396  .00000465  00000+0  27555-3 0  9991
2 31792  70.9402 294.7682 0006316 326.4429  33.6291 14.12920147957949
SL-16 R/B               
1 31793U 07029B   26025.09179215 -.00000010  00000+0  19739-4 0  9994
2 31793  70.9737 264.0309 0001935 271.9100 195.5894 14.14822250959205
KORONAS-FOTON           
1 33504U 09003A   26024.98267836  .00016499  00000+0  38312-3 0  9998
2 33504  82.4328 321.2697 0009802 325.3559  34.7047 15.42181148939006
CZ-2C R/B               
1 37731U 11030B   26025.16336384  .00002246  00000+0  28931-3 0  9994
2 37731  97.8476 343.3273 0053800 130.9064 240.2834 14.81051801783659
H-2A R/B                
1 38341U 12025E   26024.88846178  .00005304  00000+0  48386-3 0  9996
2 38341  98.4656 348.4693 0046146  95.7798 264.8684 14.94766311741677
SHIJIAN-16 (SJ-16)      
1 39358U 13057A   26025.18531128  .00002586  00000+0  25590-3 0  9992
2 39358  74.9715 267.4405 0017569 219.3596 140.6316 14.92200257665015
