CCSDS_OMM_VERS = 2.0
CREATION_DATE  = 
ORIGINATOR     = 

OBJECT_NAME    = ALOS (DAICHI)
OBJECT_ID      = 2006-002A
CENTER_NAME    = EARTH
REF_FRAME      = TEME
TIME_SYSTEM    = UTC
MEAN_ELEMENT_THEORY = SGP/SGP4

EPOCH          = 2026-01-24T20:43:17.784192
MEAN_MOTION    = 14.69648973
ECCENTRICITY   = .00021786
INCLINATION    = 98.1152
RA_OF_ASC_NODE = 341.0651
ARG_OF_PERICENTER = 80.7940
MEAN_ANOMALY   = 279.3512

EPHEMERIS_TYPE = 0
CLASSIFICATION_TYPE = U
NORAD_CAT_ID   = 28931
ELEMENT_SET_NO = 999
REV_AT_EPOCH   = 6704
BSTAR          = .40236514E-3
MEAN_MOTION_DOT = .2345E-4
MEAN_MOTION_DDOT = 0

CCSDS_OMM_VERS = 2.0
CREATION_DATE  = 
ORIGINATOR     = 

OBJECT_NAME    = H-2A R/B
OBJECT_ID      = 2006-002B
CENTER_NAME    = EARTH
REF_FRAME      = TEME
TIME_SYSTEM    = UTC
MEAN_ELEMENT_THEORY = SGP/SGP4

EPOCH          = 2026-01-24T20:20:10.341024
MEAN_MOTION    = 15.15516351
ECCENTRICITY   = .00539493
INCLINATION    = 98.2344
RA_OF_ASC_NODE = 168.1554
ARG_OF_PERICENTER = 31.6000
MEAN_ANOMALY   = 328.8451

EPHEMERIS_TYPE = 0
CLASSIFICATION_TYPE = U
NORAD_CAT_ID   = 28932
ELEMENT_SET_NO = 999
REV_AT_EPOCH   = 8779
BSTAR          = .59659513E-3
MEAN_MOTION_DOT = .11656E-3
MEAN_MOTION_DDOT = 0

CCSDS_OMM_VERS = 2.0
CREATION_DATE  = 
ORIGINATOR     = 

OBJECT_NAME    = RESURS-DK 1
OBJECT_ID      = 2006-021A
CENTER_NAME    = EARTH
REF_FRAME      = TEME
TIME_SYSTEM    = UTC
MEAN_ELEMENT_THEORY = SGP/SGP4

EPOCH          = 2026-01-25T02:06:50.634720
MEAN_MOTION    = 15.12455331
ECCENTRICITY   = .0005128
INCLINATION    = 69.9348
RA_OF_ASC_NODE = 349.7849
ARG_OF_PERICENTER = 216.8408
MEAN_ANOMALY   = 143.2406

EPHEMERIS_TYPE = 0
CLASSIFICATION_TYPE = U
NORAD_CAT_ID   = 29228
ELEMENT_SET_NO = 999
REV_AT_EPOCH   = 8093
BSTAR          = .26306E-3
MEAN_MOTION_DOT = .448E-4
MEAN_MOTION_DDOT = 0

CCSDS_OMM_VERS = 2.0
CREATION_DATE  = 
ORIGINATOR     = 

OBJECT_NAME    = CZ-4B R/B
OBJECT_ID      = 2006-046C
CENTER_NAME    = EARTH
REF_FRAME      = TEME
TIME_SYSTEM    = UTC
MEAN_ELEMENT_THEORY = SGP/SGP4

EPOCH          = 2026-01-25T03:08:37.693248
MEAN_MOTION    = 15.16397987
ECCENTRICITY   = .0034925
INCLINATION    = 97.5677
RA_OF_ASC_NODE = 70.1528
ARG_OF_PERICENTER = 59.8663
MEAN_ANOMALY   = 300.6024

EPHEMERIS_TYPE = 0
CLASSIFICATION_TYPE = U
NORAD_CAT_ID   = 29507
ELEMENT_SET_NO = 999
REV_AT_EPOCH   = 5344
BSTAR          = .43241E-3
MEAN_MOTION_DOT = .8464E-4
MEAN_MOTION_DDOT = 0

CCSDS_OMM_VERS = 2.0
CREATION_DATE  = 
ORIGINATOR     = 

OBJECT_NAME    = CZ-2C R/B
OBJECT_ID      = 2007-010B
CENTER_NAME    = EARTH
REF_FRAME      = TEME
TIME_SYSTEM    = UTC
MEAN_ELEMENT_THEORY = SGP/SGP4

EPOCH          = 2026-01-24T18:21:21.845952
MEAN_MOTION    = 14.20229826
ECCENTRICITY   = .00599766
INCLINATION    = 98.3972
RA_OF_ASC_NODE = 140.2508
ARG_OF_PERICENTER = 62.5417
MEAN_ANOMALY   = 298.1842

EPHEMERIS_TYPE = 0
CLASSIFICATION_TYPE = U
NORAD_CAT_ID   = 31114
ELEMENT_SET_NO = 999
REV_AT_EPOCH   = 97348
BSTAR          = .13379191E-3
MEAN_MOTION_DOT = .25E-5
MEAN_MOTION_DDOT = 0

CCSDS_OMM_VERS = 2.0
CREATION_DATE  = 
ORIGINATOR     = 

OBJECT_NAME    = COSMO-SKYMED 1
OBJECT_ID      = 2007-023A
CENTER_NAME    = EARTH
REF_FRAME      = TEME
TIME_SYSTEM    = UTC
MEAN_ELEMENT_THEORY = SGP/SGP4

EPOCH          = 2026-01-25T04:46:11.074656
MEAN_MOTION    = 14.96158280
ECCENTRICITY   = .0001324
INCLINATION    = 97.8848
RA_OF_ASC_NODE = 215.8956
ARG_OF_PERICENTER = 89.6857
MEAN_ANOMALY   = 270.4515

EPHEMERIS_TYPE = 0
CLASSIFICATION_TYPE = U
NORAD_CAT_ID   = 31598
ELEMENT_SET_NO = 999
REV_AT_EPOCH   = 840
BSTAR          = .60587E-3
MEAN_MOTION_DOT = .6767E-4
MEAN_MOTION_DDOT = 0

CCSDS_OMM_VERS = 2.0
CREATION_DATE  = 
ORIGINATOR     = 

OBJECT_NAME    = COSMOS 2428
OBJECT_ID      = 2007-029A
CENTER_NAME    = EARTH
REF_FRAME      = TEME
TIME_SYSTEM    = UTC
MEAN_ELEMENT_THEORY = SGP/SGP4

EPOCH          = 2026-01-25T03:17:22.326144
MEAN_MOTION    = 14.12920147
ECCENTRICITY   = .0006316
INCLINATION    = 70.9402
RA_OF_ASC_NODE = 294.7682
ARG_OF_PERICENTER = 326.4429
MEAN_ANOMALY   = 33.6291

EPHEMERIS_TYPE = 0
CLASSIFICATION_TYPE = U
NORAD_CAT_ID   = 31792
ELEMENT_SET_NO = 999
REV_AT_EPOCH   = 95794
BSTAR          = .27555E-3
MEAN_MOTION_DOT = .465E-5
MEAN_MOTION_DDOT = 0

CCSDS_OMM_VERS = 2.0
CREATION_DATE  = 
ORIGINATOR     = 

OBJECT_NAME    = SL-16 R/B
OBJECT_ID      = 2007-029B
CENTER_NAME    = EARTH
REF_FRAME      = TEME
TIME_SYSTEM    = UTC
MEAN_ELEMENT_THEORY = SGP/SGP4

EPOCH          = 2026-01-25T02:12:10.841760
MEAN_MOTION    = 14.14822250
ECCENTRICITY   = .0001935
INCLINATION    = 70.9737
RA_OF_ASC_NODE = 264.0309
ARG_OF_PERICENTER = 271.9100
MEAN_ANOMALY   = 195.5894

EPHEMERIS_TYPE = 0
CLASSIFICATION_TYPE = U
NORAD_CAT_ID   = 31793
ELEMENT_SET_NO = 999
REV_AT_EPOCH   = 95920
BSTAR          = .19739E-4
MEAN_MOTION_DOT = -.1E-6
MEAN_MOTION_DDOT = 0

CCSDS_OMM_VERS = 2.0
CREATION_DATE  = 
ORIGINATOR     = 

OBJECT_NAME    = KORONAS-FOTON
OBJECT_ID      = 2009-003A
CENTER_NAME    = EARTH
REF_FRAME      = TEME
TIME_SYSTEM    = UTC
MEAN_ELEMENT_THEORY = SGP/SGP4

EPOCH          = 2026-01-24T23:35:03.410304
MEAN_MOTION    = 15.42181148
ECCENTRICITY   = .0009802
INCLINATION    = 82.4328
RA_OF_ASC_NODE = 321.2697
ARG_OF_PERICENTER = 325.3559
MEAN_ANOMALY   = 34.7047

EPHEMERIS_TYPE = 0
CLASSIFICATION_TYPE = U
NORAD_CAT_ID   = 33504
ELEMENT_SET_NO = 999
REV_AT_EPOCH   = 93900
BSTAR          = .38312E-3
MEAN_MOTION_DOT = .16499E-3
MEAN_MOTION_DDOT = 0

CCSDS_OMM_VERS = 2.0
CREATION_DATE  = 
ORIGINATOR     = 

OBJECT_NAME    = CZ-2C R/B
OBJECT_ID      = 2011-030B
CENTER_NAME    = EARTH
REF_FRAME      = TEME
TIME_SYSTEM    = UTC
MEAN_ELEMENT_THEORY = SGP/SGP4

EPOCH          = 2026-01-25T03:55:14.635776
MEAN_MOTION    = 14.81051801
ECCENTRICITY   = .00538
INCLINATION    = 97.8476
RA_OF_ASC_NODE = 343.3273
ARG_OF_PERICENTER = 130.9064
MEAN_ANOMALY   = 240.2834

EPHEMERIS_TYPE = 0
CLASSIFICATION_TYPE = U
NORAD_CAT_ID   = 37731
ELEMENT_SET_NO = 999
REV_AT_EPOCH   = 78365
BSTAR          = .28931E-3
MEAN_MOTION_DOT = .2246E-4
MEAN_MOTION_DDOT = 0

CCSDS_OMM_VERS = 2.0
CREATION_DATE  = 
ORIGINATOR     = 

OBJECT_NAME    = H-2A R/B
OBJECT_ID      = 2012-025E
CENTER_NAME    = EARTH
REF_FRAME      = TEME
TIME_SYSTEM    = UTC
MEAN_ELEMENT_THEORY = SGP/SGP4

EPOCH          = 2026-01-24T21:19:23.097792
MEAN_MOTION    = 14.94766311
ECCENTRICITY   = .0046146
INCLINATION    = 98.4656
RA_OF_ASC_NODE = 348.4693
ARG_OF_PERICENTER = 95.7798
MEAN_ANOMALY   = 264.8684

EPHEMERIS_TYPE = 0
CLASSIFICATION_TYPE = U
NORAD_CAT_ID   = 38341
ELEMENT_SET_NO = 999
REV_AT_EPOCH   = 74167
BSTAR          = .48386E-3
MEAN_MOTION_DOT = .5304E-4
MEAN_MOTION_DDOT = 0

CCSDS_OMM_VERS = 2.0
CREATION_DATE  = 
ORIGINATOR     = 

OBJECT_NAME    = SHIJIAN-16 (SJ-16)
OBJECT_ID      = 2013-057A
CENTER_NAME    = EARTH
REF_FRAME      = TEME
TIME_SYSTEM    = UTC
MEAN_ELEMENT_THEORY = SGP/SGP4

EPOCH          = 2026-01-25T04:26:50.894592
MEAN_MOTION    = 14.92200257
ECCENTRICITY   = .0017569
INCLINATION    = 74.9715
RA_OF_ASC_NODE = 267.4405
ARG_OF_PERICENTER = 219.3596
MEAN_ANOMALY   = 140.6316

EPHEMERIS_TYPE = 0
CLASSIFICATION_TYPE = U
NORAD_CAT_ID   = 39358
ELEMENT_SET_NO = 999
REV_AT_EPOCH   = 66501
BSTAR          = .2559E-3
MEAN_MOTION_DOT = .2586E-4
MEAN_MOTION_DDOT = 0

